1 44023U 98046S   19273.47720750 +.00000004 +00000-0 +54367-4 0  9997
2 44023 045.0058 298.6662 0008010 164.2840 195.8256 14.30855357037995
1 44023U 98046S   19274.45469959  .00000006  00000-0  55084-4 0  9996
2 44023  45.0056 294.0856 0008071 169.2808 190.8210 14.30855575 38138
1 44023U 98046S   19275.43219123 -.00000002 +00000-0 +51916-4 0  9998
2 44023 045.0055 289.5047 0008129 174.3502 185.7436 14.30855866038271
1 44023U 98046S   19276.40968259 -.00000019 +00000-0 +45652-4 0  9995
2 44023 045.0054 284.9239 0008179 179.2790 180.8068 14.30856189038412
1 44023U 98046S   19277.38717382 -.00000042  00000-0  37009-4 0  9995
2 44023  45.0054 280.3431 0008249 184.0677 176.0103 14.30856460 38556
1 44023U 98046S   19278.36466485 -.00000052 +00000-0 +33174-4 0  9999
2 44023 045.0053 275.7623 0008319 188.8081 171.2620 14.30856779038694
1 44023U 98046S   19279.34215571 -.00000043 +00000-0 +36435-4 0  9999
2 44023 045.0054 271.1815 0008352 193.5619 166.5003 14.30857147038833
1 44023U 98046S   19280.04036336 -.00000023  00000-0  43946-4 0  9991
2 44023  45.0053 267.9096 0008364 196.9790 163.0777 14.30857441 38934
1 44023U 98046S   19280.31964648 -.00000012 +00000-0 +48384-4 0  9996
2 44023 045.0054 266.6009 0008374 198.2830 161.7715 14.30857559038977
1 44023U 98046S   19281.92552372 +.00000044 +00000-0 +69236-4 0  9994
2 44023 045.0056 259.0752 0008468 206.0146 154.0275 14.30858205039204
1 44023U 98046S   19282.27462770  .00000042  00000-0  68720-4 0  9990
2 44023  45.0057 257.4393 0008465 207.6553 152.3843 14.30858228 39256
1 44023U 98046S   19283.25211792 +.00000061 +00000-0 +75752-4 0  9999
2 44023 045.0057 252.8585 0008536 212.2764 147.7560 14.30858574039396
1 44023U 98046S   19284.29942870  .00000062  00000-0  76027-4 0  9999
2 44023  45.0056 247.9507 0008578 217.1400 142.8852 14.30858921 39544
1 44023U 98046S   19284.92781555 +.00000035 +00000-0 +65850-4 0  9992
2 44023 045.0056 245.0060 0008577 220.0312 139.9902 14.30858892039631
